KUIPER-00119            
1 65155U 25171Z   26062.56056028  .00015459  00000+0  20514-2 0  9993
2 65155  51.8995 190.2721 0001427 124.9071 235.2026 14.79948022 31900
KUIPER-00120            
1 65762U 25217A   26062.75002315 -.00024645  00000+0 -32114-2 0  9997
2 65762  51.8974  79.3351 0000371 110.2047 357.6129 14.79988837  5659
KUIPER-00132            
1 65763U 25217B   26062.32206245  .00049013  00000+0  12313-2 0  9992
2 65763  51.8613  34.4065 0006882 314.8243  45.2184 15.39473712 24444
KUIPER-00133            
1 65764U 25217C   26062.35833529  .00004950  00000+0  67775-3 0  9991
2 65764  51.9034  81.1155 0002083  11.4631 348.6378 14.79942730 23800
KUIPER-00139            
1 65765U 25217D   26062.25418976  .00009515  00000+0  74189-3 0  9995
2 65765  51.8855  63.2598 0007151 298.4959  61.5292 15.01754895 24046
KUIPER-00142            
1 65766U 25217E   26062.95129106  .00000622  00000+0  11058-3 0  9993
2 65766  51.9007  60.9713 0000666  91.3072 268.7967 14.79933850 24134
KUIPER-00145            
1 65767U 25217F   26062.40825951  .00000903  00000+0  14744-3 0  9992
2 65767  51.8996  65.8807 0000825  76.6017 283.5037 14.79928252 24011
KUIPER-00147            
1 65768U 25217G   26062.43942803  .00000431  00000+0  85453-4 0  9994
2 65768  51.8996  68.2396 0000774  99.6162 260.4888 14.79948148 23980
KUIPER-00148            
1 65769U 25217H   26062.44929899 -.00042222  00000+0 -25916-2 0  9998
2 65769  51.8789  53.5688 0008771 333.8650  26.1881 15.09587172 24196
KUIPER-00150            
1 65770U 25217J   26062.29346152  .00004684  00000+0  64228-3 0  9996
2 65770  51.9008  78.8890 0000646  50.7718 309.3301 14.79984567 23828
KUIPER-00151            
1 65771U 25217K   26062.43670794  .00005668  00000+0  77144-3 0  9999
2 65771  51.9007  70.7523 0000990  49.3564 310.7484 14.79955154 23959
KUIPER-00152            
1 65772U 25217L   26062.41643747  .00004989  00000+0  68239-3 0  9996
2 65772  51.9002  58.3344 0000841 130.7227 229.3809 14.79971243 24127
KUIPER-00153            
1 65773U 25217M   26062.39046146  .00010665  00000+0  61094-3 0  9994
2 65773  51.8767  56.8766 0010476 304.9745  55.0247 15.13069504 24140
KUIPER-00155            
1 65774U 25217N   26062.95622406  .00028005  00000+0  11851-2 0  9998
2 65774  51.8788  38.6371 0005422 313.2237  46.8291 15.22969272 24449
KUIPER-00156            
1 65775U 25217P   26062.38804599  .00005202  00000+0  71061-3 0  9995
2 65775  51.9031  53.4880 0000777  98.4996 261.6054 14.79950629 24186
KUIPER-00158            
1 65776U 25217Q   26062.39192190  .00006802  00000+0  90903-3 0  9997
2 65776  51.8968  73.3382 0001072  37.1896 322.9140 14.80460482 23913
KUIPER-00163            
1 65777U 25217R   26062.75002315  .01228192  00000+0  11785+0 0  9993
2 65777  51.8964  73.7540 0000838  93.8845 290.4101 14.89496046  5271
